start=new Date('2023-04-01T00:00:00.000Z').valueOf();
sats=[{"PERIAPSIS":"546.396","REV_AT_EPOCH":"10429","OBJECT_TYPE":"PAYLOAD","MEAN_MOTION_DOT":"0.00005966","CENTER_NAME":"EARTH","SEMIMAJOR_AXIS":"6925.489","FILE":"3876560","BSTAR":"0.00041960000000","MEAN_MOTION_DDOT":"0.0000000000000","APOAPSIS":"548.312","NORAD_CAT_ID":"48581","OBJECT_NAME":"STARLINK-2235","INCLINATION":"53.0536","EPHEMERIS_TYPE":"0","MEAN_ANOMALY":"249.5161","OBJECT_ID":"2021-041AE","DECAY_DATE":null,"COUNTRY_CODE":"US","LAUNCH_DATE":"2021-05-15","TLE_LINE2":"2 48581  53.0536 237.4187 0001383 110.5976 249.5161 15.06354197104291","ARG_OF_PERICENTER":"110.5976","TIME_SYSTEM":"UTC","EPOCH":"2023-03-31T19:38:40.717248","ELEMENT_SET_NO":"999","MEAN_ELEMENT_THEORY":"SGP4","GP_ID":"229206462","ECCENTRICITY":"0.00013830","MEAN_MOTION":"15.06354197","SITE":"AFETR","RA_OF_ASC_NODE":"237.4187","TLE_LINE1":"1 48581U 21041AE  23090.81852682  .00005966  00000-0  41960-3 0  9997","REF_FRAME":"TEME","PERIOD":"95.595","CLASSIFICATION_TYPE":"U","RCS_SIZE":"LARGE"},{"REV_AT_EPOCH":"10421","OBJECT_TYPE":"PAYLOAD","PERIAPSIS":"546.293","FILE":"3876291","BSTAR":"-0.00097552000000","MEAN_MOTION_DDOT":"0.0000000000000","MEAN_MOTION_DOT":"-0.00014781","CENTER_NAME":"EARTH","SEMIMAJOR_AXIS":"6925.356","APOAPSIS":"548.149","NORAD_CAT_ID":"48582","DECAY_DATE":null,"COUNTRY_CODE":"US","LAUNCH_DATE":"2021-05-15","INCLINATION":"53.0529","MEAN_ANOMALY":"299.2080","OBJECT_NAME":"STARLINK-2236","EPHEMERIS_TYPE":"0","OBJECT_ID":"2021-041AF","TIME_SYSTEM":"UTC","ELEMENT_SET_NO":"999","EPOCH":"2023-03-31T09:38:52.883808","TLE_LINE2":"2 48582  53.0529 239.4471 0001340  60.9043 299.2080 15.06397709104218","ARG_OF_PERICENTER":"60.9043","MEAN_MOTION":"15.06397709","MEAN_ELEMENT_THEORY":"SGP4","ECCENTRICITY":"0.00013400","GP_ID":"229200053","TLE_LINE1":"1 48582U 21041AF  23090.40200097 -.00014781  00000-0 -97552-3 0  9995","REF_FRAME":"TEME","SITE":"AFETR","RA_OF_ASC_NODE":"239.4471","RCS_SIZE":"LARGE","PERIOD":"95.592","CLASSIFICATION_TYPE":"U"},{"APOAPSIS":"547.757","NORAD_CAT_ID":"48583","MEAN_ANOMALY":"274.4059","OBJECT_NAME":"STARLINK-2237","INCLINATION":"53.0530","EPHEMERIS_TYPE":"0","OBJECT_ID":"2021-041AG","DECAY_DATE":null,"COUNTRY_CODE":"US","LAUNCH_DATE":"2021-05-15","PERIAPSIS":"546.744","REV_AT_EPOCH":"10365","OBJECT_TYPE":"PAYLOAD","MEAN_MOTION_DOT":"0.00024511","CENTER_NAME":"EARTH","SEMIMAJOR_AXIS":"6925.386","FILE":"3876431","BSTAR":"0.00165920000000","MEAN_MOTION_DDOT":"0.0000000000000","SITE":"AFETR","RA_OF_ASC_NODE":"282.4760","TLE_LINE1":"1 48583U 21041AG  23090.80515945  .00024511  00000-0  16592-2 0  9995","REF_FRAME":"TEME","PERIOD":"95.593","CLASSIFICATION_TYPE":"U","RCS_SIZE":"LARGE","TLE_LINE2":"2 48583  53.0530 282.4760 0000731  85.7014 274.4059 15.06387901103657","ARG_OF_PERICENTER":"85.7014","TIME_SYSTEM":"UTC","ELEMENT_SET_NO":"999","EPOCH":"2023-03-31T19:19:25.776480","MEAN_ELEMENT_THEORY":"SGP4","ECCENTRICITY":"0.00007310","GP_ID":"229203717","MEAN_MOTION":"15.06387901"},{"EPOCH":"2023-03-31T20:17:49.878816","ELEMENT_SET_NO":"999","TIME_SYSTEM":"UTC","TLE_LINE2":"2 48584  53.0517 282.2933 0001110  71.6756 288.4353 15.06369050103604","ARG_OF_PERICENTER":"71.6756","MEAN_MOTION":"15.06369050","MEAN_ELEMENT_THEORY":"SGP4","GP_ID":"229207399","ECCENTRICITY":"0.00011100","TLE_LINE1":"1 48584U 21041AH  23090.84571619  .00020831  00000-0  14144-2 0  9992","REF_FRAME":"TEME","SITE":"AFETR","RA_OF_ASC_NODE":"282.2933","RCS_SIZE":"LARGE","PERIOD":"95.594","CLASSIFICATION_TYPE":"U","REV_AT_EPOCH":"10360","OBJECT_TYPE":"PAYLOAD","PERIAPSIS":"546.540","FILE":"3876606","MEAN_MOTION_DDOT":"0.0000000000000","BSTAR":"0.00141440000000","MEAN_MOTION_DOT":"0.00020831","SEMIMAJOR_AXIS":"6925.443","CENTER_NAME":"EARTH","APOAPSIS":"548.077","NORAD_CAT_ID":"48584","DECAY_DATE":null,"COUNTRY_CODE":"US","LAUNCH_DATE":"2021-05-15","OBJECT_NAME":"STARLINK-2238","EPHEMERIS_TYPE":"0","MEAN_ANOMALY":"288.4353","INCLINATION":"53.0517","OBJECT_ID":"2021-041AH"},{"PERIOD":"95.593","CLASSIFICATION_TYPE":"U","RCS_SIZE":"LARGE","SITE":"AFETR","RA_OF_ASC_NODE":"282.5391","TLE_LINE1":"1 48585U 21041AJ  23090.79043259 -.00001455  00000-0 -78868-4 0  9999","REF_FRAME":"TEME","MEAN_ELEMENT_THEORY":"SGP4","ECCENTRICITY":"0.00007350","GP_ID":"229207400","MEAN_MOTION":"15.06378655","TLE_LINE2":"2 48585  53.0529 282.5391 0000735 116.6022 243.5042 15.06378655103593","ARG_OF_PERICENTER":"116.6022","ELEMENT_SET_NO":"999","EPOCH":"2023-03-31T18:58:13.375776","TIME_SYSTEM":"UTC","EPHEMERIS_TYPE":"0","OBJECT_NAME":"STARLINK-2240","MEAN_ANOMALY":"243.5042","INCLINATION":"53.0529","OBJECT_ID":"2021-041AJ","DECAY_DATE":null,"LAUNCH_DATE":"2021-05-15","COUNTRY_CODE":"US","APOAPSIS":"547.788","NORAD_CAT_ID":"48585","MEAN_MOTION_DOT":"-0.00001455","SEMIMAJOR_AXIS":"6925.414","CENTER_NAME":"EARTH","FILE":"3876606","MEAN_MOTION_DDOT":"0.0000000000000","BSTAR":"-0.00007886800000","PERIAPSIS":"546.770","REV_AT_EPOCH":"10359","OBJECT_TYPE":"PAYLOAD"},{"RCS_SIZE":"LARGE","CLASSIFICATION_TYPE":"U","PERIOD":"95.593","REF_FRAME":"TEME","TLE_LINE1":"1 48586U 21041AK  23090.84939308  .00003847  00000-0  27712-3 0  9991","RA_OF_ASC_NODE":"282.2774","SITE":"AFETR","MEAN_MOTION":"15.06387585","GP_ID":"229207461","ECCENTRICITY":"0.00011360","MEAN_ELEMENT_THEORY":"SGP4","TIME_SYSTEM":"UTC","ELEMENT_SET_NO":"999","EPOCH":"2023-03-31T20:23:07.562112","ARG_OF_PERICENTER":"92.8526","TLE_LINE2":"2 48586  53.0526 282.2774 0001136  92.8526 267.2593 15.06387585103601","COUNTRY_CODE":"US","LAUNCH_DATE":"2021-05-15","DECAY_DATE":null,"OBJECT_ID":"2021-041AK","MEAN_ANOMALY":"267.2593","OBJECT_NAME":"STARLINK-2241","INCLINATION":"53.0526","EPHEMERIS_TYPE":"0","NORAD_CAT_ID":"48586","APOAPSIS":"548.038","BSTAR":"0.00027712000000","MEAN_MOTION_DDOT":"0.0000000000000","FILE":"3876584","CENTER_NAME":"EARTH","SEMIMAJOR_AXIS":"6925.387","MEAN_MOTION_DOT":"0.00003847","OBJECT_TYPE":"PAYLOAD","REV_AT_EPOCH":"10360","PERIAPSIS":"546.465"},{"TLE_LINE1":"1 48587U 21041AL  23090.85307552  .00024158  00000-0  16355-2 0  9991","REF_FRAME":"TEME","SITE":"AFETR","RA_OF_ASC_NODE":"282.2567","RCS_SIZE":"LARGE","PERIOD":"95.593","CLASSIFICATION_TYPE":"U","TIME_SYSTEM":"UTC","ELEMENT_SET_NO":"999","EPOCH":"2023-03-31T20:28:25.724928","ARG_OF_PERICENTER":"66.8321","TLE_LINE2":"2 48587  53.0530 282.2567 0000703  66.8321 293.2742 15.06391673103608","MEAN_MOTION":"15.06391673","MEAN_ELEMENT_THEORY":"SGP4","ECCENTRICITY":"0.00007030","GP_ID":"229207454","APOAPSIS":"547.726","NORAD_CAT_ID":"48587","DECAY_DATE":null,"COUNTRY_CODE":"US","LAUNCH_DATE":"2021-05-15","OBJECT_NAME":"STARLINK-2242","MEAN_ANOMALY":"293.2742","INCLINATION":"53.0530","EPHEMERIS_TYPE":"0","OBJECT_ID":"2021-041AL","REV_AT_EPOCH":"10360","OBJECT_TYPE":"PAYLOAD","PERIAPSIS":"546.752","FILE":"3876584","BSTAR":"0.00163550000000","MEAN_MOTION_DDOT":"0.0000000000000","MEAN_MOTION_DOT":"0.00024158","CENTER_NAME":"EARTH","SEMIMAJOR_AXIS":"6925.374"},{"REV_AT_EPOCH":"10374","OBJECT_TYPE":"PAYLOAD","PERIAPSIS":"546.104","FILE":"3876314","BSTAR":"0.00104410000000","MEAN_MOTION_DDOT":"0.0000000000000","MEAN_MOTION_DOT":"0.00015305","CENTER_NAME":"EARTH","SEMIMAJOR_AXIS":"6925.348","APOAPSIS":"548.322","NORAD_CAT_ID":"48588","DECAY_DATE":null,"COUNTRY_CODE":"US","LAUNCH_DATE":"2021-05-15","MEAN_ANOMALY":"282.1103","OBJECT_NAME":"STARLINK-2244","INCLINATION":"53.0519","EPHEMERIS_TYPE":"0","OBJECT_ID":"2021-041AM","TIME_SYSTEM":"UTC","ELEMENT_SET_NO":"999","EPOCH":"2023-03-31T12:00:13.495680","TLE_LINE2":"2 48588  53.0519 273.8380 0001601  78.0066 282.1103 15.06400143103740","ARG_OF_PERICENTER":"78.0066","MEAN_MOTION":"15.06400143","MEAN_ELEMENT_THEORY":"SGP4","GP_ID":"229200632","ECCENTRICITY":"0.00016010","TLE_LINE1":"1 48588U 21041AM  23090.50015620  .00015305  00000-0  10441-2 0  9990","REF_FRAME":"TEME","SITE":"AFETR","RA_OF_ASC_NODE":"273.8380","RCS_SIZE":"LARGE","PERIOD":"95.592","CLASSIFICATION_TYPE":"U"},{"PERIAPSIS":"546.288","OBJECT_TYPE":"PAYLOAD","REV_AT_EPOCH":"10370","CENTER_NAME":"EARTH","SEMIMAJOR_AXIS":"6925.296","MEAN_MOTION_DOT":"0.00018146","BSTAR":"0.00123340000000","MEAN_MOTION_DDOT":"0.0000000000000","FILE":"3875961","NORAD_CAT_ID":"48589","APOAPSIS":"548.035","OBJECT_ID":"2021-041AN","INCLINATION":"53.0526","EPHEMERIS_TYPE":"0","OBJECT_NAME":"STARLINK-2245","MEAN_ANOMALY":"285.8291","LAUNCH_DATE":"2021-05-15","COUNTRY_CODE":"US","DECAY_DATE":null,"TLE_LINE2":"2 48589  53.0526 275.0533 0001261  74.2837 285.8291 15.06417016103700","ARG_OF_PERICENTER":"74.2837","TIME_SYSTEM":"UTC","ELEMENT_SET_NO":"999","EPOCH":"2023-03-31T05:32:44.508480","ECCENTRICITY":"0.00012610","GP_ID":"229193469","MEAN_ELEMENT_THEORY":"SGP4","MEAN_MOTION":"15.06417016","RA_OF_ASC_NODE":"275.0533","SITE":"AFETR","REF_FRAME":"TEME","TLE_LINE1":"1 48589U 21041AN  23090.23107070  .00018146  00000-0  12334-2 0  9991","CLASSIFICATION_TYPE":"U","PERIOD":"95.591","RCS_SIZE":"LARGE"},{"ECCENTRICITY":"0.00009510","GP_ID":"229200949","MEAN_ELEMENT_THEORY":"SGP4","MEAN_MOTION":"15.06389572","TLE_LINE2":"2 48591  53.0531 273.6282 0000951  90.5945 269.5152 15.06389572103700","ARG_OF_PERICENTER":"90.5945","TIME_SYSTEM":"UTC","ELEMENT_SET_NO":"999","EPOCH":"2023-03-31T13:07:51.110112","CLASSIFICATION_TYPE":"U","PERIOD":"95.593","RCS_SIZE":"LARGE","RA_OF_ASC_NODE":"273.6282","SITE":"AFETR","REF_FRAME":"TEME","TLE_LINE1":"1 48591U 21041AQ  23090.54711933 -.00005670  00000-0 -36215-3 0  9992","CENTER_NAME":"EARTH","SEMIMAJOR_AXIS":"6925.381","MEAN_MOTION_DOT":"-0.00005670","BSTAR":"-0.00036215000000","MEAN_MOTION_DDOT":"0.0000000000000","FILE":"3876314","PERIAPSIS":"546.587","OBJECT_TYPE":"PAYLOAD","REV_AT_EPOCH":"10370","OBJECT_ID":"2021-041AQ","EPHEMERIS_TYPE":"0","INCLINATION":"53.0531","MEAN_ANOMALY":"269.5152","OBJECT_NAME":"STARLINK-2248","LAUNCH_DATE":"2021-05-15","COUNTRY_CODE":"US","DECAY_DATE":null,"NORAD_CAT_ID":"48591","APOAPSIS":"547.904"}];
